#cP2016  6  5  0  0  0.00000000     192 ORBIT IGb08 HLM  IGS
## 1900      0.00000000   900.00000000 57544 0.0000000000000
+   31   G01G02G03G05G06G07G08G09G10G11G12G13G14G15G16G17G18
+        G19G20G21G22G23G24G25G26G27G28G29G30G31G32  0  0  0
+          0  0  0  0  0  0  0  0  0  0  0  0  0  0  0  0  0
+          0  0  0  0  0  0  0  0  0  0  0  0  0  0  0  0  0
+          0  0  0  0  0  0  0  0  0  0  0  0  0  0  0  0  0
++         4  3  3  3  4  4  6  4  4  3  4  4  5  3  3  3  4
++         4  4  4  4  3  3  3  4  5  3  3  3  3  5  0  0  0
++         0  0  0  0  0  0  0  0  0  0  0  0  0  0  0  0  0
++         0  0  0  0  0  0  0  0  0  0  0  0  0  0  0  0  0
++         0  0  0  0  0  0  0  0  0  0  0  0  0  0  0  0  0
%c G  cc GPS ccc cccc cccc cccc cccc ccccc ccccc ccccc ccccc
%c cc cc ccc ccc cccc cccc cccc cccc ccccc ccccc ccccc ccccc
%f  1.2500000  1.025000000  0.00000000000  0.000000000000000
%f  0.0000000  0.000000000  0.00000000000  0.000000000000000
%i    0    0    0    0      0      0      0      0         0
%i    0    0    0    0      0      0      0      0         0
/* ULTRA ORBIT COMBINATION 19001_00 (57545.000) FROM:       
/* cou emu esu gfu ngu siu usu                              
/* REFERENCED TO emu CLOCK AND TO WEIGHTED MEAN POLE:       
/* PCV:IGS08_1899 OL/AL:FES2004  NONE     Y  ORB:CMB CLK:CMB
*  2016  6  5 16 30  0.00000000
PG01   4543.905510 -17361.726214 -19579.908404     22.669407  6     5 187       
PG02 -21055.490777  15305.591953   4511.708923    587.408370  5 10  7 193       
PG03  -7066.185891 -19061.738311 -17083.921225    -64.555192  7  6  3 170       
PG05 -12433.304196  10123.554485  21135.440987   -115.184112  5  6  5 189       
PG06 -24227.329140   4459.040494  -9923.987099    200.515231  8  4 13 155       
PG07 -12688.198244 -10206.748069  21195.664174    450.310345  5  9  4 197       
PG08   6185.157556 -24867.361514   6958.768102    -37.879710 17 13 20 213       
PG09  -8243.480764 -21463.465290  13265.412314    142.878552  6  6  8 174       
PG10  23753.227330   9364.570099  -7422.597670    -38.840369  7  9  4 287       
PG11   6318.115963 -22530.551235 -13092.305907   -649.526977  7  8  1 178       
PG12   3465.137806  18246.665546 -19206.113931    381.873561 14 11 14 211       
PG13 -12353.205882  19679.641127  12821.522536    -22.709941  4  6  9 200       
PG14  15106.353066     68.025313 -21582.588705    -17.737276  8 10  5 210       
PG15  -3173.649567  25814.872165   4237.241612   -314.002648  5  8  8 153       
PG16  13317.841194  -7637.769237  21625.302627    -12.804979  6  9  8 198       
PG17 -13903.065005  -6217.639191 -21452.924528   -203.985949  6  8  5 216       
PG18  20284.474039  16805.166819   4882.061176    523.307681 10  9 10 160       
PG19 -15451.211046   5352.170698 -21247.123752   -525.582048  8 10 12 201       
PG20   3812.028695  18199.575399  18802.838608    416.622747  6 10  9 212       
PG21  15850.534621   8514.823733  20359.921192   -524.937244  5  9  9 209       
PG22   2515.541580 -16560.757014 -20350.710819    326.727394  9  7  7 208       
PG23  -1985.000047 -25828.820674   4851.181175   -176.859746  5  7 10 173       
PG24  -7869.358263  18334.215900 -17493.901726    -18.129068 10  3  3 212       
PG25  15106.115019  19012.712246 -11113.902162   -184.689146  4  5  6 175       
PG26  20708.864927   -420.985723  16648.361763   -386.730298  6 11  7 123       
PG27  11953.089865 -17342.874145  16039.256996    100.243098  4  5 10 174       
PG28 -22450.340124 -12796.681005  -5597.844483    528.035093  8 11  7 186       
PG29   4672.643538  23753.383898  10982.852513    656.907697  6  5  8 215       
PG30 -20609.208314  -3985.877545  16325.050953    130.844158  4  9  5 195       
PG31  25048.956771  -6412.566452  -6757.661014    265.417682     8  7 203       
PG32  14973.649679   3583.325223 -21632.762294    -18.612794  6  8  5 295       
*  2016  6  5 16 45  0.00000000
PG01   6503.178232 -18255.544344 -18134.847372     22.670543  6  1  5 185       
PG02 -21492.391036  15181.274281   1698.040348    587.406127  4 10  7 194       
PG03  -5243.760038 -18112.965215 -18696.121221    -64.558345  7  6  3 177       
PG05 -14451.861647   8835.551563  20437.611480   -115.181321  4  5  6 185       
PG06 -23205.822682   3663.556336 -12382.449847    200.520053  6  4 13 147       
PG07 -10545.907989 -11334.980625  21756.229239    450.308467  4  9  4 196       
PG08   6395.757286 -23920.204316   9607.347266    -37.881074 17 11 19 214       
PG09  -7988.232421 -22845.149584  10905.074459    142.885262  6  5  8 175       
PG10  24217.801601   9935.939808  -4687.345000    -38.848006  7  9  4 287       
PG11   7429.565894 -23307.833220 -10858.842246   -649.528498  7  9  3 180       
PG12   1590.874750  17030.736346 -20514.819293    381.874714 14 12 13 211       
PG13 -12295.418817  18063.620946  15034.407476    -22.712167  3  6  9 202       
PG14  14852.075547   2581.562394 -21618.688863    -17.739076  7 10  7 210       
PG15  -3550.862993  25162.833849   6952.409242   -314.004385  6  8  7 144       
PG16  15276.088973  -6189.036583  20815.931934    -12.802651  6  9  8 200       
PG17 -13672.816426  -8684.889354 -20759.401148   -203.986115  6  8  5 214       
PG18  19565.751578  16758.361869   7529.513702    523.311553 10  9 11 160       
PG19 -15186.930985   2960.442776 -21871.020365   -525.581933  8 10 11 203       
PG20   1731.422559  17313.460574  19909.013060    416.624911  6 10  9 212       
PG21  13956.743838   9697.097826  21210.306492   -524.938375  4  9  9 208       
PG22   4656.607367 -15422.316431 -20866.808989    326.719733  9  7  7 206       
PG23  -1649.118940 -26199.044733   2035.471919   -176.861359  6  6 10 176       
PG24  -9612.474866  19109.481417 -15676.531094    -18.129133 10  2  4 212       
PG25  13849.571540  18418.551213 -13503.154043   -184.695444  6  5  5 180       
PG26  22150.627255    656.712478  14672.574259   -386.740738  6 11  7 136       
PG27  12057.873664 -15390.375119  17861.603966    100.246944  5  5 10 169       
PG28 -22790.201059 -13259.365505  -2740.868198    528.037535  8 10  6 189       
PG29   4398.649005  24838.742279   8391.301655    656.907355  6  5  8 215       
PG30 -18888.668832  -4952.342096  18041.015820    130.846695  4  8  4 193       
PG31  24301.944421  -5832.192004  -9411.562346    265.415996  2  9  6 201       
PG32  14876.391880   6032.056657 -21151.873781    -18.619458  6  8  6 296       
*  2016  6  5 17  0  0.00000000
PG01   8260.137058 -19156.934688 -16377.054795     22.671660  6  2  6 189       
PG02 -21670.183725  14895.332549  -1145.451855    587.404118  4 10  7 186       
PG03  -3229.941024 -17181.966395 -19986.379232    -64.561472  7  6  3 162       
PG05 -16442.699739   7696.574308  19387.487842   -115.178796  5  6  6 192       
PG06 -22001.421691   2674.391274 -14627.724744    200.524888  4  4 13 157       
PG07  -8427.495090 -12599.818028  21948.382649    450.306079  4  8  4 199       
PG08   6666.407443 -22695.342540  12090.562055    -37.882129 16 10 19 222       
PG09  -7793.564507 -23960.354027   8356.732763    142.891905  6  4  7 172       
PG10  24434.530125  10334.690495  -1871.711509    -38.855684  7  8  4 287       
PG11   8356.060210 -23926.828043  -8442.772717   -649.529664  6  9  4 195       
PG12   -460.507452  15857.584697 -21476.418016    381.875522 14 12 13 215       
PG13 -12305.851442  16209.687075  16987.481740    -22.714413  3  6  9 198       
PG14  14729.596949   5085.468083 -21274.100457    -17.740903  7 10  7 205       
PG15  -3984.947263  24228.121897   9544.977424   -314.005553  6  8  7 164       
PG16  17215.497165  -4916.345271  19648.008587    -12.800509  6  8  8 198       
PG17 -13577.723325 -11057.355881 -19699.287332   -203.986013  6  9  4 217       
PG18  18591.905825  16615.027861  10051.403425    523.314960  9 10 11 148       
PG19 -15051.576533    505.514942 -22128.198135   -525.581955  8 10 11 202       
PG20   -484.858563  16481.909359  20667.961819    416.626887  6 11  9 209       
PG21  12062.828326  11014.100393  21720.029253   -524.939056  3  8 10 207       
PG22   6879.960795 -14365.349190 -21015.719731    326.711974  9  7  7 204       
PG23  -1319.664842 -26262.288266   -816.172450   -176.862746  6  6 10 175       
PG24 -11130.901306  19850.577697 -13588.176081    -18.129671 10  2  5 215       
PG25  12336.490503  17773.568382 -15663.882249   -184.701753  7  5  5 187       
PG26  23436.085753   1546.698384  12444.770893   -386.751198  7 12  7 124       
PG27  12273.442740 -13257.621496  19373.864683    100.250703  6  5 10 175       
PG28 -22880.669000 -13521.023040    163.622744    528.039465  8 10  6 186       
PG29   4191.694600  25635.708551   5655.716916    656.907127  6  5  8 219       
PG30 -17063.043749  -6088.090220  19447.403932    130.849292  4  8  4 194       
PG31  23336.026666  -5065.473079 -11906.083354    265.414308  3  9  6 208       
PG32  14903.704264   8407.341703 -20306.758864    -18.626172  6  8  7 296       
EOF
